{
  "norad_id": 54252,
  "name": "JILIN-1 GAOFEN 03D51",
  "history": [
    {
      "epoch": "2026-04-10T07:41:11.408352Z",
      "apogee_km": 401.09311410851933,
      "perigee_km": 394.82156775221574,
      "latitude_deg": -1.8831068963544175e-05,
      "longitude_deg": -73.54263638401981,
      "height_km": 402.96845244844616,
      "semi_major_axis_km": 6776.094340930367,
      "eccentricity": 0.00046277,
      "inclination_deg": 97.612,
      "raan_deg": 240.3107,
      "arg_perigee_deg": 233.3322,
      "mean_anomaly_deg": 126.7507,
      "mean_motion_rev_day": 15.56444346
    },
    {
      "epoch": "2026-04-11T20:43:00.824736Z",
      "apogee_km": 400.8101907284372,
      "perigee_km": 394.43961938530174,
      "latitude_deg": 7.166285336159014e-05,
      "longitude_deg": 91.12606280488961,
      "height_km": 402.9203031044062,
      "semi_major_axis_km": 6775.761905056869,
      "eccentricity": 0.0004701,
      "inclination_deg": 97.612,
      "raan_deg": 241.9561,
      "arg_perigee_deg": 227.3783,
      "mean_anomaly_deg": 132.7076,
      "mean_motion_rev_day": 15.56558892
    },
    {
      "epoch": "2026-04-13T08:12:07.322688Z",
      "apogee_km": 400.62842870744043,
      "perigee_km": 394.12813485640436,
      "latitude_deg": -4.1694989653960796e-05,
      "longitude_deg": -81.03132029884361,
      "height_km": 402.9237106114844,
      "semi_major_axis_km": 6775.515281781923,
      "eccentricity": 0.00047969,
      "inclination_deg": 97.6121,
      "raan_deg": 243.5331,
      "arg_perigee_deg": 222.2183,
      "mean_anomaly_deg": 137.8702,
      "mean_motion_rev_day": 15.56643879
    },
    {
      "epoch": "2026-04-14T21:13:41.009088Z",
      "apogee_km": 400.4841195231329,
      "perigee_km": 393.79556622384916,
      "latitude_deg": -4.081928132472678e-05,
      "longitude_deg": 83.70291653401193,
      "height_km": 402.9749183325899,
      "semi_major_axis_km": 6775.276842873491,
      "eccentricity": 0.0004936,
      "inclination_deg": 97.6126,
      "raan_deg": 245.1783,
      "arg_perigee_deg": 216.254,
      "mean_anomaly_deg": 143.838,
      "mean_motion_rev_day": 15.56726053
    },
    {
      "epoch": "2026-04-15T20:22:06.176640Z",
      "apogee_km": 400.38242788230673,
      "perigee_km": 393.6235482302227,
      "latitude_deg": -4.5024467118549605e-05,
      "longitude_deg": 96.67631481559323,
      "height_km": 402.9745425647534,
      "semi_major_axis_km": 6775.139988056265,
      "eccentricity": 0.0004988,
      "inclination_deg": 97.6129,
      "raan_deg": 246.2069,
      "arg_perigee_deg": 213.0245,
      "mean_anomaly_deg": 147.0698,
      "mean_motion_rev_day": 15.56773221
    },
    {
      "epoch": "2026-04-16T21:03:02.175264Z",
      "apogee_km": 400.25357026379515,
      "perigee_km": 393.44064624453404,
      "latitude_deg": -2.892161882875844e-06,
      "longitude_deg": 86.52652074496581,
      "height_km": 402.97189088154124,
      "semi_major_axis_km": 6774.984108254164,
      "eccentricity": 0.0005028,
      "inclination_deg": 97.6134,
      "raan_deg": 247.3041,
      "arg_perigee_deg": 208.7362,
      "mean_anomaly_deg": 151.3616,
      "mean_motion_rev_day": 15.56826949
    },
    {
      "epoch": "2026-04-17T23:16:28.402752Z",
      "apogee_km": 400.1140084096651,
      "perigee_km": 393.2516579042631,
      "latitude_deg": 1.5508225494919074e-05,
      "longitude_deg": 53.25575901064707,
      "height_km": 402.9410430957945,
      "semi_major_axis_km": 6774.819833156964,
      "eccentricity": 0.00050646,
      "inclination_deg": 97.6139,
      "raan_deg": 248.4696,
      "arg_perigee_deg": 204.5644,
      "mean_anomaly_deg": 155.537,
      "mean_motion_rev_day": 15.56883574
    },
    {
      "epoch": "2026-04-18T20:52:11.542656Z",
      "apogee_km": 399.9249117605468,
      "perigee_km": 393.0351262522163,
      "latitude_deg": -7.645056641068172e-06,
      "longitude_deg": 89.39932437599337,
      "height_km": 402.8213435957917,
      "semi_major_axis_km": 6774.617019006381,
      "eccentricity": 0.0005085,
      "inclination_deg": 97.6142,
      "raan_deg": 249.4298,
      "arg_perigee_deg": 201.557,
      "mean_anomaly_deg": 158.5471,
      "mean_motion_rev_day": 15.56953488
    },
    {
      "epoch": "2026-04-19T20:00:23.724288Z",
      "apogee_km": 399.76188625097075,
      "perigee_km": 392.754451888085,
      "latitude_deg": -4.358977913033404e-05,
      "longitude_deg": 102.4271800966687,
      "height_km": 402.7224335462954,
      "semi_major_axis_km": 6774.395169069528,
      "eccentricity": 0.0005172,
      "inclination_deg": 97.6146,
      "raan_deg": 250.4586,
      "arg_perigee_deg": 198.272,
      "mean_anomaly_deg": 161.8349,
      "mean_motion_rev_day": 15.5702997
    },
    {
      "epoch": "2026-04-20T14:30:54.947232Z",
      "apogee_km": 399.6348713965217,
      "perigee_km": 392.6079331558403,
      "latitude_deg": 7.096211425324155e-05,
      "longitude_deg": -175.1398564709382,
      "height_km": 402.64374587955587,
      "semi_major_axis_km": 6774.25840227618,
      "eccentricity": 0.00051865,
      "inclination_deg": 97.6148,
      "raan_deg": 251.2818,
      "arg_perigee_deg": 195.5189,
      "mean_anomaly_deg": 164.5908,
      "mean_motion_rev_day": 15.57077123
    },
    {
      "epoch": "2026-04-21T19:49:09.098400Z",
      "apogee_km": 399.3821160018297,
      "perigee_km": 392.2775795718708,
      "latitude_deg": 1.2539285256779288e-05,
      "longitude_deg": 105.40111538207232,
      "height_km": 402.4404985288631,
      "semi_major_axis_km": 6773.96684778685,
      "eccentricity": 0.0005244,
      "inclination_deg": 97.615,
      "raan_deg": 252.5852,
      "arg_perigee_deg": 192.0566,
      "mean_anomaly_deg": 168.0564,
      "mean_motion_rev_day": 15.5717765
    },
    {
      "epoch": "2026-04-22T20:29:41.456256Z",
      "apogee_km": 399.18729213026745,
      "perigee_km": 392.06671141160587,
      "latitude_deg": 5.0340761405356064e-05,
      "longitude_deg": 95.35079028541055,
      "height_km": 402.281991394616,
      "semi_major_axis_km": 6773.764001770936,
      "eccentricity": 0.0005256,
      "inclination_deg": 97.615,
      "raan_deg": 253.6831,
      "arg_perigee_deg": 188.7824,
      "mean_anomaly_deg": 171.334,
      "mean_motion_rev_day": 15.57247597
    },
    {
      "epoch": "2026-04-23T15:00:03.114720Z",
      "apogee_km": 399.0508575664562,
      "perigee_km": 391.89480972160436,
      "latitude_deg": -1.5488481475382273e-05,
      "longitude_deg": 177.82403889100888,
      "height_km": 402.1661591088051,
      "semi_major_axis_km": 6773.60983364403,
      "eccentricity": 0.00052823,
      "inclination_deg": 97.6148,
      "raan_deg": 254.5066,
      "arg_perigee_deg": 186.1977,
      "mean_anomaly_deg": 173.9213,
      "mean_motion_rev_day": 15.57300762
    },
    {
      "epoch": "2026-04-24T20:18:02.392128Z",
      "apogee_km": 398.79547815364094,
      "perigee_km": 391.603549443289,
      "latitude_deg": -4.5731483596672743e-05,
      "longitude_deg": 98.42775228340406,
      "height_km": 401.92891897735706,
      "semi_major_axis_km": 6773.336513798465,
      "eccentricity": 0.0005309,
      "inclination_deg": 97.6146,
      "raan_deg": 255.8106,
      "arg_perigee_deg": 182.084,
      "mean_anomaly_deg": 178.0393,
      "mean_motion_rev_day": 15.57395024
    }
  ]
}